[
    {
        "Altitude(m)": 557544.7463119577,
        "Argument of Periapsis(deg)": 0.013245982221427002,
        "Eccentricity": 0.0,
        "Inclination(deg)": 53.0,
        "Latitude(deg)": 42.758422941451144,
        "Longitude(deg)": 74.55784014839051,
        "Mean Anomaly(deg)": 122.00138573515517,
        "RAAN(deg)": 39.98028673705603,
        "Satellite Name": "Starlink Shell 1 182",
        "Satellite Number": 182,
        "Semi-Major Axis(m)": 6931778.249405717,
        "Time(s)": 380
    },
    {
        "Altitude(m)": 557464.6988839464,
        "Argument of Periapsis(deg)": 0.013594560700938237,
        "Eccentricity": 0.0,
        "Inclination(deg)": 53.0,
        "Latitude(deg)": 42.394592482809806,
        "Longitude(deg)": 75.20899017065396,
        "Mean Anomaly(deg)": 122.62821693871187,
        "RAAN(deg)": 39.97976796697856,
        "Satellite Name": "Starlink Shell 1 182",
        "Satellite Number": 182,
        "Semi-Major Axis(m)": 6931778.249405717,
        "Time(s)": 390
    },
    {
        "Altitude(m)": 557384.0847030415,
        "Argument of Periapsis(deg)": 0.013943139180449475,
        "Eccentricity": 0.0,
        "Inclination(deg)": 53.0,
        "Latitude(deg)": 42.02660498176088,
        "Longitude(deg)": 75.85214958241484,
        "Mean Anomaly(deg)": 123.2550481422686,
        "RAAN(deg)": 39.97924919690109,
        "Satellite Name": "Starlink Shell 1 182",
        "Satellite Number": 182,
        "Semi-Major Axis(m)": 6931778.249405717,
        "Time(s)": 400
    },
    {
        "Altitude(m)": 557302.9551737324,
        "Argument of Periapsis(deg)": 0.014291717659960712,
        "Eccentricity": 0.0,
        "Inclination(deg)": 53.0,
        "Latitude(deg)": 41.65455954318109,
        "Longitude(deg)": 76.48742497669734,
        "Mean Anomaly(deg)": 123.8818793458253,
        "RAAN(deg)": 39.97873042682362,
        "Satellite Name": "Starlink Shell 1 182",
        "Satellite Number": 182,
        "Semi-Major Axis(m)": 6931778.249405717,
        "Time(s)": 410
    },
    {
        "Altitude(m)": 557221.362171842,
        "Argument of Periapsis(deg)": 0.014640296139471948,
        "Eccentricity": 0.0,
        "Inclination(deg)": 53.0,
        "Latitude(deg)": 41.27855341712412,
        "Longitude(deg)": 77.11492508819718,
        "Mean Anomaly(deg)": 124.50871054938202,
        "RAAN(deg)": 39.97821165674614,
        "Satellite Name": "Starlink Shell 1 182",
        "Satellite Number": 182,
        "Semi-Major Axis(m)": 6931778.249405717,
        "Time(s)": 420
    },
    {
        "Altitude(m)": 557139.3580183663,
        "Argument of Periapsis(deg)": 0.014988874618983185,
        "Eccentricity": 0.0,
        "Inclination(deg)": 53.0,
        "Latitude(deg)": 40.898681993147704,
        "Longitude(deg)": 77.73476097416369,
        "Mean Anomaly(deg)": 125.13554175293875,
        "RAAN(deg)": 39.97769288666867,
        "Satellite Name": "Starlink Shell 1 182",
        "Satellite Number": 182,
        "Semi-Major Axis(m)": 6931778.249405717,
        "Time(s)": 430
    },
    {
        "Altitude(m)": 557056.9954530302,
        "Argument of Periapsis(deg)": 0.015337453098494424,
        "Eccentricity": 0.0,
        "Inclination(deg)": 53.0,
        "Latitude(deg)": 40.51503879907061,
        "Longitude(deg)": 78.34704621340148,
        "Mean Anomaly(deg)": 125.76237295649545,
        "RAAN(deg)": 39.9771741165912,
        "Satellite Name": "Starlink Shell 1 182",
        "Satellite Number": 182,
        "Semi-Major Axis(m)": 6931778.249405717,
        "Time(s)": 440
    },
    {
        "Altitude(m)": 556974.327607648,
        "Argument of Periapsis(deg)": 0.01568603157800566,
        "Eccentricity": 0.0,
        "Inclination(deg)": 53.0,
        "Latitude(deg)": 40.127715503800566,
        "Longitude(deg)": 78.951895610162,
        "Mean Anomaly(deg)": 126.38920416005217,
        "RAAN(deg)": 39.97665534651372,
        "Satellite Name": "Starlink Shell 1 182",
        "Satellite Number": 182,
        "Semi-Major Axis(m)": 6931778.249405717,
        "Time(s)": 450
    },
    {
        "Altitude(m)": 556891.4079791975,
        "Argument of Periapsis(deg)": 0.0160346100575169,
        "Eccentricity": 0.0,
        "Inclination(deg)": 53.0,
        "Latitude(deg)": 39.73680192389637,
        "Longitude(deg)": 79.54942542825455,
        "Mean Anomaly(deg)": 127.01603536360888,
        "RAAN(deg)": 39.976136576436254,
        "Satellite Name": "Starlink Shell 1 182",
        "Satellite Number": 182,
        "Semi-Major Axis(m)": 6931778.249405717,
        "Time(s)": 460
    },
    {
        "Altitude(m)": 556808.2904027101,
        "Argument of Periapsis(deg)": 0.016383188537028134,
        "Eccentricity": 0.0,
        "Inclination(deg)": 53.0,
        "Latitude(deg)": 39.3423860335366,
        "Longitude(deg)": 80.13975364203091,
        "Mean Anomaly(deg)": 127.6428665671656,
        "RAAN(deg)": 39.97561780635878,
        "Satellite Name": "Starlink Shell 1 182",
        "Satellite Number": 182,
        "Semi-Major Axis(m)": 6931778.249405717,
        "Time(s)": 470
    },
    {
        "Altitude(m)": 556725.0290239329,
        "Argument of Periapsis(deg)": 0.01673176701653937,
        "Eccentricity": 0.0,
        "Inclination(deg)": 53.0,
        "Latitude(deg)": 38.94455397758523,
        "Longitude(deg)": 80.72299869085326,
        "Mean Anomaly(deg)": 128.2696977707223,
        "RAAN(deg)": 39.97509903628131,
        "Satellite Name": "Starlink Shell 1 182",
        "Satellite Number": 182,
        "Semi-Major Axis(m)": 6931778.249405717,
        "Time(s)": 480
    },
    {
        "Altitude(m)": 556641.6782718096,
        "Argument of Periapsis(deg)": 0.017080345496050607,
        "Eccentricity": 0.0,
        "Inclination(deg)": 53.0,
        "Latitude(deg)": 38.5433900874631,
        "Longitude(deg)": 81.29927976224789,
        "Mean Anomaly(deg)": 128.89652897427905,
        "RAAN(deg)": 39.97458026620384,
        "Satellite Name": "Starlink Shell 1 182",
        "Satellite Number": 182,
        "Semi-Major Axis(m)": 6931778.249405717,
        "Time(s)": 490
    },
    {
        "Altitude(m)": 556558.292830768,
        "Argument of Periapsis(deg)": 0.017428923975561842,
        "Eccentricity": 0.0,
        "Inclination(deg)": 53.0,
        "Latitude(deg)": 38.13897689954661,
        "Longitude(deg)": 81.86871709029434,
        "Mean Anomaly(deg)": 129.52336017783574,
        "RAAN(deg)": 39.97406149612636,
        "Satellite Name": "Starlink Shell 1 182",
        "Satellite Number": 182,
        "Semi-Major Axis(m)": 6931778.249405717,
        "Time(s)": 500
    },
    {
        "Altitude(m)": 556474.9276128426,
        "Argument of Periapsis(deg)": 0.01777750245507308,
        "Eccentricity": 0.0,
        "Inclination(deg)": 53.0,
        "Latitude(deg)": 37.731395175832084,
        "Longitude(deg)": 82.43143075578159,
        "Mean Anomaly(deg)": 130.1501913813925,
        "RAAN(deg)": 39.97354272604889,
        "Satellite Name": "Starlink Shell 1 182",
        "Satellite Number": 182,
        "Semi-Major Axis(m)": 6931778.249405717,
        "Time(s)": 510
    },
    {
        "Altitude(m)": 556391.6377296346,
        "Argument of Periapsis(deg)": 0.018126080934584315,
        "Eccentricity": 0.0,
        "Inclination(deg)": 53.0,
        "Latitude(deg)": 37.32072392662263,
        "Longitude(deg)": 82.98754101327347,
        "Mean Anomaly(deg)": 130.77702258494918,
        "RAAN(deg)": 39.97302395597142,
        "Satellite Name": "Starlink Shell 1 182",
        "Satellite Number": 182,
        "Semi-Major Axis(m)": 6931778.249405717,
        "Time(s)": 520
    },
    {
        "Altitude(m)": 556308.4784641617,
        "Argument of Periapsis(deg)": 0.018474659414095554,
        "Eccentricity": 0.0,
        "Inclination(deg)": 53.0,
        "Latitude(deg)": 36.907040435004966,
        "Longitude(deg)": 83.53716863159718,
        "Mean Anomaly(deg)": 131.4038537885059,
        "RAAN(deg)": 39.97250518589394,
        "Satellite Name": "Starlink Shell 1 182",
        "Satellite Number": 182,
        "Semi-Major Axis(m)": 6931778.249405717,
        "Time(s)": 530
    },
    {
        "Altitude(m)": 556225.505242504,
        "Argument of Periapsis(deg)": 0.018823237893606792,
        "Eccentricity": 0.0,
        "Inclination(deg)": 53.0,
        "Latitude(deg)": 36.490420282903266,
        "Longitude(deg)": 84.08043373426015,
        "Mean Anomaly(deg)": 132.03068499206262,
        "RAAN(deg)": 39.97198641581647,
        "Satellite Name": "Starlink Shell 1 182",
        "Satellite Number": 182,
        "Semi-Major Axis(m)": 6931778.249405717,
        "Time(s)": 540
    },
    {
        "Altitude(m)": 556142.7736054369,
        "Argument of Periapsis(deg)": 0.019171816373118027,
        "Eccentricity": 0.0,
        "Inclination(deg)": 53.0,
        "Latitude(deg)": 36.07093737850787,
        "Longitude(deg)": 84.61745616493477,
        "Mean Anomaly(deg)": 132.65751619561934,
        "RAAN(deg)": 39.971467645739,
        "Satellite Name": "Starlink Shell 1 182",
        "Satellite Number": 182,
        "Semi-Major Axis(m)": 6931778.249405717,
        "Time(s)": 550
    },
    {
        "Altitude(m)": 556060.3391798722,
        "Argument of Periapsis(deg)": 0.019520394852629266,
        "Eccentricity": 0.0,
        "Inclination(deg)": 53.0,
        "Latitude(deg)": 35.64866398489428,
        "Longitude(deg)": 85.14835586452554,
        "Mean Anomaly(deg)": 133.28434739917603,
        "RAAN(deg)": 39.97094887566152,
        "Satellite Name": "Starlink Shell 1 182",
        "Satellite Number": 182,
        "Semi-Major Axis(m)": 6931778.249405717,
        "Time(s)": 560
    }
]